NORAD_CAT_ID,OBJECT_NAME,OBJECT_TYPE,EPOCH,MEAN_MOTION,ECCENTRICITY,INCLINATION,RA_OF_ASC_NODE,ARG_OF_PERICENTER,MEAN_ANOMALY,BSTAR,MEAN_MOTION_DOT,MEAN_MOTION_DDOT,TLE_LINE0,TLE_LINE1,TLE_LINE2,SEMIMAJOR_AXIS,PERIOD,APOGEE,PERIGEE,DECAYED
52707.0,STARLINK-4007,PAYLOAD,2023-10-03 09:08:01,15.08836412,0.0001194,53.2142,161.7761,90.6578,269.4551,-1.6298e-05,-5.47e-06,0.0,0 STARLINK-4007,1 52707U 22053BD  23276.38057289 -.00000547  00000-0 -16298-4 0  9993,2 52707  53.2142 161.7761 0001194  90.6578 269.4551 15.08836412 76798,6917.891,95.438,540.582,538.93,0.0
52707.0,STARLINK-4007,PAYLOAD,2023-10-03 21:51:07,15.08838493,0.0001297,53.216,159.3995,91.5518,268.5623,-4.5428e-05,-1.011e-05,0.0,0 STARLINK-4007,1 52707U 22053BD  23276.91049802 -.00001011  00000-0 -45428-4 0  9998,2 52707  53.2160 159.3995 0001297  91.5518 268.5623 15.08838493 77352,6917.885,95.438,540.647,538.853,0.0
52707.0,STARLINK-4007,PAYLOAD,2023-10-04 02:37:15,15.08850206,0.000138,53.2164,158.5073,95.6014,264.5136,6.282e-05,7.12e-06,0.0,0 STARLINK-4007,1 52707U 22053BD  23277.10920812  .00000712  00000-0  62820-4 0  9999,2 52707  53.2164 158.5073 0001380  95.6014 264.5136 15.08850206 76904,6917.849,95.437,540.669,538.76,0.0
52707.0,STARLINK-4007,PAYLOAD,2023-10-04 08:58:48,15.08841712,0.0001344,53.2152,157.3169,94.8464,265.2682,3.8716e-05,3.28e-06,0.0,0 STARLINK-4007,1 52707U 22053BD  23277.37417124  .00000328  00000-0  38716-4 0  9995,2 52707  53.2152 157.3169 0001344  94.8464 265.2682 15.08841712 76944,6917.875,95.437,540.67,538.81,0.0
52707.0,STARLINK-4007,PAYLOAD,2023-10-04 21:41:53,15.08847555,0.0001429,53.2169,154.937,75.8276,284.2875,7.6242e-05,9.26e-06,0.0,0 STARLINK-4007,1 52707U 22053BD  23277.90409105  .00000926  00000-0  76242-4 0  9994,2 52707  53.2169 154.9370 0001429  75.8276 284.2875 15.08847555 77502,6917.857,95.437,540.711,538.734,0.0
52707.0,STARLINK-4007,PAYLOAD,2023-10-05 00:52:39,15.08852772,0.0001543,53.2159,154.3449,89.9518,270.1651,0.00018204,2.611e-05,0.0,0 STARLINK-4007,1 52707U 22053BD  23278.03656665  .00002611  00000-0  18204-3 0  9990,2 52707  53.2159 154.3449 0001543  89.9518 270.1651 15.08852772 77046,6917.841,95.437,540.774,538.639,0.0
52707.0,STARLINK-4007,PAYLOAD,2023-10-05 19:57:17,15.08837029,0.0001666,53.2142,150.7732,137.3963,222.7159,7.6857e-05,9.35e-06,0.0,0 STARLINK-4007,1 52707U 22053BD  23278.83145244  .00000935  00000-0  76857-4 0  9990,2 52707  53.2142 150.7732 0001666 137.3963 222.7159 15.08837029 77168,6917.889,95.438,540.907,538.602,0.0
52707.0,STARLINK-4007,PAYLOAD,2023-10-05 21:32:40,15.08843019,0.0001436,53.2161,150.477,84.4534,275.6622,1.1464e-05,-1.05e-06,0.0,0 STARLINK-4007,1 52707U 22053BD  23278.89769330 -.00000105  00000-0  11464-4 0  9997,2 52707  53.2161 150.4770 0001436  84.4534 275.6622 15.08843019 77651,6917.871,95.437,540.73,538.743,0.0
52707.0,STARLINK-4007,PAYLOAD,2023-10-06 00:43:26,15.08847496,0.0001478,53.2157,149.8816,90.0495,270.0666,7.9693e-05,9.81e-06,0.0,0 STARLINK-4007,1 52707U 22053BD  23279.03017065  .00000981  00000-0  79693-4 0  9994,2 52707  53.2157 149.8816 0001478  90.0495 270.0666 15.08847496 77193,6917.857,95.437,540.745,538.7,0.0
52707.0,STARLINK-4007,PAYLOAD,2023-10-06 08:40:22,15.08837927,0.0001518,53.2165,148.3937,91.9117,268.2049,-3.6308e-05,-8.66e-06,0.0,0 STARLINK-4007,1 52707U 22053BD  23279.36137554 -.00000866  00000-0 -36308-4 0  9996,2 52707  53.2165 148.3937 0001518  91.9117 268.2049 15.08837927 77244,6917.887,95.438,540.802,538.702,0.0
52707.0,STARLINK-4007,PAYLOAD,2023-10-06 21:23:27,15.08837389,0.0001284,53.2135,146.0177,107.6053,252.5079,-9.9854e-05,-1.877e-05,0.0,0 STARLINK-4007,1 52707U 22053BD  23279.89129614 -.00001877  00000-0 -99854-4 0  9990,2 52707  53.2135 146.0177 0001284 107.6053 252.5079 15.08837389 77809,6917.888,95.438,540.642,538.865,0.0
52707.0,STARLINK-4007,PAYLOAD,2023-10-07 00:34:14,15.0884006,0.0001435,53.2157,145.421,100.9716,259.1437,-3.2252e-05,-8.01e-06,0.0,0 STARLINK-4007,1 52707U 22053BD  23280.02377560 -.00000801  00000-0 -32252-4 0  9997,2 52707  53.2157 145.4210 0001435 100.9716 259.1437 15.08840060 77827,6917.88,95.438,540.738,538.752,0.0
52707.0,STARLINK-4007,PAYLOAD,2023-10-07 21:14:15,15.08843062,0.000158,53.2152,141.556,102.8407,257.2761,0.0001279,1.748e-05,0.0,0 STARLINK-4007,1 52707U 22053BD  23280.88489899  .00001748  00000-0  12790-3 0  9993,2 52707  53.2152 141.5560 0001580 102.8407 257.2761 15.08843062 77954,6917.871,95.437,540.829,538.643,0.0
52707.0,STARLINK-4007,PAYLOAD,2023-10-08 00:25:01,15.08846265,0.0001576,53.2153,140.9608,104.8593,255.2574,0.00017731,2.535e-05,0.0,0 STARLINK-4007,1 52707U 22053BD  23281.01737740  .00002535  00000-0  17731-3 0  9995,2 52707  53.2153 140.9608 0001576 104.8593 255.2574 15.08846265 77491,6917.861,95.437,540.816,538.636,0.0
52707.0,STARLINK-4007,PAYLOAD,2023-10-08 19:29:39,15.08841261,0.0001513,53.2145,137.3928,102.9432,257.1729,0.00019586,2.831e-05,0.0,0 STARLINK-4007,1 52707U 22053BD  23281.81226129  .00002831  00000-0  19586-3 0  9996,2 52707  53.2145 137.3928 0001513 102.9432 257.1729 15.08841261 77617,6917.877,95.437,540.788,538.695,0.0
52707.0,STARLINK-4007,PAYLOAD,2023-10-08 21:05:02,15.08848215,0.0001395,53.2152,137.0963,93.5416,266.5735,0.00021124,3.076e-05,0.0,0 STARLINK-4007,1 52707U 22053BD  23281.87849795  .00003076  00000-0  21124-3 0  9995,2 52707  53.2152 137.0963 0001395  93.5416 266.5735 15.08848215 78108,6917.855,95.437,540.685,538.755,0.0
52707.0,STARLINK-4007,PAYLOAD,2023-10-09 00:15:48,15.08850533,0.0001416,53.2153,136.5006,95.1056,265.0098,0.00023943,3.526e-05,0.0,0 STARLINK-4007,1 52707U 22053BD  23282.01097630  .00003526  00000-0  23943-3 0  9996,2 52707  53.2153 136.5006 0001416  95.1056 265.0098 15.08850533 77643,6917.848,95.437,540.693,538.734,0.0
52707.0,STARLINK-4007,PAYLOAD,2023-10-09 17:45:03,15.08842014,0.0001551,53.2157,133.2269,81.3622,278.7546,1.5889e-05,-3.5e-07,0.0,0 STARLINK-4007,1 52707U 22053BD  23282.73962069 -.00000035  00000-0  15889-4 0  9996,2 52707  53.2157 133.2269 0001551  81.3622 278.7546 15.08842014 77754,6917.874,95.437,540.812,538.666,0.0
52707.0,STARLINK-4007,PAYLOAD,2023-10-09 20:55:49,15.08844184,0.0001553,53.216,132.6318,80.4277,279.689,4.2105e-05,3.82e-06,0.0,0 STARLINK-4007,1 52707U 22053BD  23282.87209880  .00000382  00000-0  42105-4 0  9991,2 52707  53.2160 132.6318 0001553  80.4277 279.6890 15.08844184 78252,6917.868,95.437,540.807,538.658,0.0
52707.0,STARLINK-4007,PAYLOAD,2023-10-10 14:25:03,15.08841688,0.0001228,53.2146,129.3659,93.5958,266.5175,-3.3687e-05,-8.24e-06,0.0,0 STARLINK-4007,1 52707U 22053BD  23283.60073863 -.00000824  00000-0 -33687-4 0  9991,2 52707  53.2146 129.3659 0001228  93.5958 266.5175 15.08841688 78366,6917.875,95.437,540.59,538.891,0.0
52707.0,STARLINK-4007,PAYLOAD,2023-10-10 19:11:13,15.08845393,0.0001429,53.2151,128.4717,102.8016,257.3136,3.7744e-05,3.13e-06,0.0,0 STARLINK-4007,1 52707U 22053BD  23283.79945623  .00000313  00000-0  37744-4 0  9992,2 52707  53.2151 128.4717 0001429 102.8016 257.3136 15.08845393 77911,6917.864,95.437,540.717,538.74,0.0
52707.0,STARLINK-4007,PAYLOAD,2023-10-10 20:46:36,15.08847433,0.0001366,53.2149,128.1754,99.2203,260.8944,6.7781e-05,7.91e-06,0.0,0 STARLINK-4007,1 52707U 22053BD  23283.86569515  .00000791  00000-0  67781-4 0  9996,2 52707  53.2149 128.1754 0001366  99.2203 260.8944 15.08847433 78401,6917.858,95.437,540.668,538.778,0.0
52707.0,STARLINK-4007,PAYLOAD,2023-10-11 06:18:54,15.08844533,0.0001343,53.2148,126.3905,94.0998,266.0148,0.00011038,1.469e-05,0.0,0 STARLINK-4007,1 52707U 22053BD  23284.26313630  .00001469  00000-0  11038-3 0  9992,2 52707  53.2148 126.3905 0001343  94.0998 266.0148 15.08844533 78465,6917.867,95.437,540.661,538.802,0.0
52707.0,STARLINK-4007,PAYLOAD,2023-10-11 19:02:00,15.0883398,0.0001474,53.2156,124.0128,101.9737,258.1421,-9.3469e-05,-1.775e-05,0.0,0 STARLINK-4007,1 52707U 22053BD  23284.79306267 -.00001775  00000-0 -93469-4 0  9999,2 52707  53.2156 124.0128 0001474 101.9737 258.1421 15.08833980 78066,6917.899,95.438,540.783,538.744,0.0
52707.0,STARLINK-4007,PAYLOAD,2023-10-12 06:09:42,15.08838014,0.0001252,53.2143,121.9313,100.7468,259.3665,2.5031e-05,1.11e-06,0.0,0 STARLINK-4007,1 52707U 22053BD  23285.25674203  .00000111  00000-0  25031-4 0  9990,2 52707  53.2143 121.9313 0001252 100.7468 259.3665 15.08838014 78613,6917.886,95.438,540.618,538.885,0.0
52707.0,STARLINK-4007,PAYLOAD,2023-10-12 18:52:47,15.0884178,0.0001265,53.2142,119.5521,95.3872,264.7264,8.7553e-05,1.106e-05,0.0,0 STARLINK-4007,1 52707U 22053BD  23285.78666155  .00001106  00000-0  87553-4 0  9997,2 52707  53.2142 119.5521 0001265  95.3872 264.7264 15.08841780 78213,6917.875,95.437,540.615,538.865,0.0
52707.0,STARLINK-4007,PAYLOAD,2023-10-12 20:28:10,15.08844494,0.0001271,53.2144,119.2546,95.0432,265.0705,0.0001192,1.61e-05,0.0,0 STARLINK-4007,1 52707U 22053BD  23285.85290036  .00001610  00000-0  11920-3 0  9990,2 52707  53.2144 119.2546 0001271  95.0432 265.0705 15.08844494 78708,6917.867,95.437,540.611,538.852,0.0
52707.0,STARLINK-4007,PAYLOAD,2023-10-13 12:22:02,15.08840741,0.0001421,53.2147,116.283,86.5314,273.584,0.00015414,2.166e-05,0.0,0 STARLINK-4007,1 52707U 22053BD  23286.51530345  .00002166  00000-0  15414-3 0  9993,2 52707  53.2147 116.2830 0001421  86.5314 273.5840 15.08840741 78801,6917.878,95.438,540.726,538.76,0.0
52707.0,STARLINK-4007,PAYLOAD,2023-10-13 20:18:57,15.0884211,0.0001287,53.2139,114.7939,86.0348,274.0791,0.00012392,1.685e-05,0.0,0 STARLINK-4007,1 52707U 22053BD  23286.84650271  .00001685  00000-0  12392-3 0  9997,2 52707  53.2139 114.7939 0001287  86.0348 274.0791 15.08842110 78372,6917.874,95.437,540.629,538.849,0.0
52707.0,STARLINK-4007,PAYLOAD,2023-10-14 18:34:22,15.08839951,0.000145,53.2153,110.6295,76.2982,283.8172,3.883e-05,3.3e-06,0.0,0 STARLINK-4007,1 52707U 22053BD  23287.77386655  .00000330  00000-0  38830-4 0  9994,2 52707  53.2153 110.6295 0001450  76.2982 283.8172 15.08839951 78511,6917.881,95.438,540.749,538.742,0.0
